ONEWEB-0358             
1 49284U 21090F   25272.19827555 -.00000003  00000+0 -38682-4 0  9994
2 49284  87.9254 326.4737 0001925  90.5814 269.5540 13.20770596196108
ONEWEB-0359             
1 49285U 21090G   25272.57390659  .00000085  00000+0  17611-3 0  9993
2 49285  87.9244 326.4049 0002258  96.1154 264.0237 13.20771094196133
ONEWEB-0360             
1 49286U 21090H   25272.71595009  .00000146  00000+0  32644-3 0  9997
2 49286  87.9244 326.3855 0002036  99.2363 260.9000 13.20771896195466
ONEWEB-0361             
1 49287U 21090J   25272.69701009  .00000101  00000+0  21713-3 0  9990
2 49287  87.9241 326.3854 0001862  89.7274 270.4073 13.20771488195917
ONEWEB-0362             
1 49288U 21090K   25272.74654637  .00000034  00000+0  53073-4 0  9991
2 49288  87.9279 356.7898 0001890 107.1623 252.9717 13.19727289192564
ONEWEB-0363             
1 49289U 21090L   25272.63703235  .00000102  00000+0  21795-3 0  9990
2 49289  87.9245 326.3934 0001955  85.1548 274.9808 13.20771671195918
ONEWEB-0364             
1 49290U 21090M   25272.67491226  .00000095  00000+0  20136-3 0  9999
2 49290  87.9242 326.4114 0001823  92.0116 268.1226 13.20771901197052
ONEWEB-0365             
1 49291U 21090N   25272.75601035 -.00000050  00000+0 -15727-3 0  9993
2 49291  87.9290 356.7426 0001757 102.5366 257.5963 13.19727332192072
ONEWEB-0366             
1 49292U 21090P   25272.73246609  .00000397  00000+0  10360-2 0  9993
2 49292  87.9070 341.5923 0001813  95.7509 264.3828 13.14504527193349
ONEWEB-0367             
1 49293U 21090Q   25272.63545339  .00000107  00000+0  23106-3 0  9997
2 49293  87.9247 326.3894 0001894 101.3220 258.8127 13.20770656195434
ONEWEB-0368             
1 49294U 21090R   25272.60862611 -.00000144  00000+0 -38698-3 0  9995
2 49294  87.9242 326.4299 0001210  75.4492 284.6776 13.20770560196582
ONEWEB-0369             
1 49295U 21090S   25272.75128167 -.00000054  00000+0 -16789-3 0  9990
2 49295  87.9286 356.7759 0001763 101.2815 258.8516 13.19726830192061
ONEWEB-0370             
1 49296U 21090T   25272.72068485  .00000202  00000+0  46586-3 0  9995
2 49296  87.9250 326.3803 0002169 100.9277 259.2101 13.20771276195485
ONEWEB-0371             
1 49297U 21090U   25272.75917198 -.00000043  00000+0 -13854-3 0  9990
2 49297  87.9281 356.7629 0001866 105.4580 254.6759 13.19726182192101
ONEWEB-0372             
1 49298U 21090V   25272.63373352  .00000081  00000+0  16767-3 0  9992
2 49298  87.9243 326.4002 0001753  97.1229 263.0104 13.20773363195444
ONEWEB-0373             
1 49299U 21090W   25272.58494698  .00000049  00000+0  88198-4 0  9996
2 49299  87.9243 326.4234 0001935  93.2649 266.8706 13.20772405196623
ONEWEB-0374             
1 49300U 21090X   25272.71980047  .00000331  00000+0  85791-3 0  9991
2 49300  87.9064 341.5707 0001693  77.5385 282.5934 13.14503121193347
