[{"OBJECT_NAME":"ONEWEB-0358","OBJECT_ID":"2021-090F","EPOCH":"2025-09-29T04:45:31.007520","MEAN_MOTION":13.20770596,"ECCENTRICITY":0.00019258,"INCLINATION":87.9254,"RA_OF_ASC_NODE":326.4737,"ARG_OF_PERICENTER":90.5814,"MEAN_ANOMALY":269.554,"EPHEMERIS_TYPE":0,"CLASSIFICATION_TYPE":"U","NORAD_CAT_ID":49284,"ELEMENT_SET_NO":999,"REV_AT_EPOCH":19610,"BSTAR":-3.8682366e-5,"MEAN_MOTION_DOT":-3.0e-8,"MEAN_MOTION_DDOT":0},{"OBJECT_NAME":"ONEWEB-0359","OBJECT_ID":"2021-090G","EPOCH":"2025-09-29T13:46:25.529376","MEAN_MOTION":13.20771094,"ECCENTRICITY":0.0002258,"INCLINATION":87.9244,"RA_OF_ASC_NODE":326.4049,"ARG_OF_PERICENTER":96.1154,"MEAN_ANOMALY":264.0237,"EPHEMERIS_TYPE":0,"CLASSIFICATION_TYPE":"U","NORAD_CAT_ID":49285,"ELEMENT_SET_NO":999,"REV_AT_EPOCH":19613,"BSTAR":0.00017611,"MEAN_MOTION_DOT":8.5e-7,"MEAN_MOTION_DDOT":0},{"OBJECT_NAME":"ONEWEB-0360","OBJECT_ID":"2021-090H","EPOCH":"2025-09-29T17:10:58.087776","MEAN_MOTION":13.20771896,"ECCENTRICITY":0.0002036,"INCLINATION":87.9244,"RA_OF_ASC_NODE":326.3855,"ARG_OF_PERICENTER":99.2363,"MEAN_ANOMALY":260.9,"EPHEMERIS_TYPE":0,"CLASSIFICATION_TYPE":"U","NORAD_CAT_ID":49286,"ELEMENT_SET_NO":999,"REV_AT_EPOCH":19546,"BSTAR":0.00032644,"MEAN_MOTION_DOT":1.46e-6,"MEAN_MOTION_DDOT":0},{"OBJECT_NAME":"ONEWEB-0361","OBJECT_ID":"2021-090J","EPOCH":"2025-09-29T16:43:41.671776","MEAN_MOTION":13.20771488,"ECCENTRICITY":0.0001862,"INCLINATION":87.9241,"RA_OF_ASC_NODE":326.3854,"ARG_OF_PERICENTER":89.7274,"MEAN_ANOMALY":270.4073,"EPHEMERIS_TYPE":0,"CLASSIFICATION_TYPE":"U","NORAD_CAT_ID":49287,"ELEMENT_SET_NO":999,"REV_AT_EPOCH":19591,"BSTAR":0.00021713,"MEAN_MOTION_DOT":1.01e-6,"MEAN_MOTION_DDOT":0},{"OBJECT_NAME":"ONEWEB-0362","OBJECT_ID":"2021-090K","EPOCH":"2025-09-29T17:55:01.606368","MEAN_MOTION":13.19727289,"ECCENTRICITY":0.000189,"INCLINATION":87.9279,"RA_OF_ASC_NODE":356.7898,"ARG_OF_PERICENTER":107.1623,"MEAN_ANOMALY":252.9717,"EPHEMERIS_TYPE":0,"CLASSIFICATION_TYPE":"U","NORAD_CAT_ID":49288,"ELEMENT_SET_NO":999,"REV_AT_EPOCH":19256,"BSTAR":5.3073e-5,"MEAN_MOTION_DOT":3.4e-7,"MEAN_MOTION_DDOT":0},{"OBJECT_NAME":"ONEWEB-0363","OBJECT_ID":"2021-090L","EPOCH":"2025-09-29T15:17:19.595040","MEAN_MOTION":13.20771671,"ECCENTRICITY":0.0001955,"INCLINATION":87.9245,"RA_OF_ASC_NODE":326.3934,"ARG_OF_PERICENTER":85.1548,"MEAN_ANOMALY":274.9808,"EPHEMERIS_TYPE":0,"CLASSIFICATION_TYPE":"U","NORAD_CAT_ID":49289,"ELEMENT_SET_NO":999,"REV_AT_EPOCH":19591,"BSTAR":0.00021795,"MEAN_MOTION_DOT":1.02e-6,"MEAN_MOTION_DDOT":0},{"OBJECT_NAME":"ONEWEB-0364","OBJECT_ID":"2021-090M","EPOCH":"2025-09-29T16:11:52.419264","MEAN_MOTION":13.20771901,"ECCENTRICITY":0.0001823,"INCLINATION":87.9242,"RA_OF_ASC_NODE":326.4114,"ARG_OF_PERICENTER":92.0116,"MEAN_ANOMALY":268.1226,"EPHEMERIS_TYPE":0,"CLASSIFICATION_TYPE":"U","NORAD_CAT_ID":49290,"ELEMENT_SET_NO":999,"REV_AT_EPOCH":19705,"BSTAR":0.00020136,"MEAN_MOTION_DOT":9.5e-7,"MEAN_MOTION_DDOT":0},{"OBJECT_NAME":"ONEWEB-0365","OBJECT_ID":"2021-090N","EPOCH":"2025-09-29T18:08:39.294240","MEAN_MOTION":13.19727332,"ECCENTRICITY":0.0001757,"INCLINATION":87.929,"RA_OF_ASC_NODE":356.7426,"ARG_OF_PERICENTER":102.5366,"MEAN_ANOMALY":257.5963,"EPHEMERIS_TYPE":0,"CLASSIFICATION_TYPE":"U","NORAD_CAT_ID":49291,"ELEMENT_SET_NO":999,"REV_AT_EPOCH":19207,"BSTAR":-0.00015727,"MEAN_MOTION_DOT":-5.0e-7,"MEAN_MOTION_DDOT":0},{"OBJECT_NAME":"ONEWEB-0366","OBJECT_ID":"2021-090P","EPOCH":"2025-09-29T17:34:45.070176","MEAN_MOTION":13.14504527,"ECCENTRICITY":0.0001813,"INCLINATION":87.907,"RA_OF_ASC_NODE":341.5923,"ARG_OF_PERICENTER":95.7509,"MEAN_ANOMALY":264.3828,"EPHEMERIS_TYPE":0,"CLASSIFICATION_TYPE":"U","NORAD_CAT_ID":49292,"ELEMENT_SET_NO":999,"REV_AT_EPOCH":19334,"BSTAR":0.001036,"MEAN_MOTION_DOT":3.97e-6,"MEAN_MOTION_DDOT":0},{"OBJECT_NAME":"ONEWEB-0367","OBJECT_ID":"2021-090Q","EPOCH":"2025-09-29T15:15:03.172896","MEAN_MOTION":13.20770656,"ECCENTRICITY":0.0001894,"INCLINATION":87.9247,"RA_OF_ASC_NODE":326.3894,"ARG_OF_PERICENTER":101.322,"MEAN_ANOMALY":258.8127,"EPHEMERIS_TYPE":0,"CLASSIFICATION_TYPE":"U","NORAD_CAT_ID":49293,"ELEMENT_SET_NO":999,"REV_AT_EPOCH":19543,"BSTAR":0.00023106,"MEAN_MOTION_DOT":1.07e-6,"MEAN_MOTION_DDOT":0},{"OBJECT_NAME":"ONEWEB-0368","OBJECT_ID":"2021-090R","EPOCH":"2025-09-29T14:36:25.295904","MEAN_MOTION":13.2077056,"ECCENTRICITY":0.000121,"INCLINATION":87.9242,"RA_OF_ASC_NODE":326.4299,"ARG_OF_PERICENTER":75.4492,"MEAN_ANOMALY":284.6776,"EPHEMERIS_TYPE":0,"CLASSIFICATION_TYPE":"U","NORAD_CAT_ID":49294,"ELEMENT_SET_NO":999,"REV_AT_EPOCH":19658,"BSTAR":-0.00038698,"MEAN_MOTION_DOT":-1.44e-6,"MEAN_MOTION_DDOT":0},{"OBJECT_NAME":"ONEWEB-0369","OBJECT_ID":"2021-090S","EPOCH":"2025-09-29T18:01:50.736288","MEAN_MOTION":13.1972683,"ECCENTRICITY":0.0001763,"INCLINATION":87.9286,"RA_OF_ASC_NODE":356.7759,"ARG_OF_PERICENTER":101.2815,"MEAN_ANOMALY":258.8516,"EPHEMERIS_TYPE":0,"CLASSIFICATION_TYPE":"U","NORAD_CAT_ID":49295,"ELEMENT_SET_NO":999,"REV_AT_EPOCH":19206,"BSTAR":-0.00016789,"MEAN_MOTION_DOT":-5.4e-7,"MEAN_MOTION_DDOT":0},{"OBJECT_NAME":"ONEWEB-0370","OBJECT_ID":"2021-090T","EPOCH":"2025-09-29T17:17:47.171040","MEAN_MOTION":13.20771276,"ECCENTRICITY":0.0002169,"INCLINATION":87.925,"RA_OF_ASC_NODE":326.3803,"ARG_OF_PERICENTER":100.9277,"MEAN_ANOMALY":259.2101,"EPHEMERIS_TYPE":0,"CLASSIFICATION_TYPE":"U","NORAD_CAT_ID":49296,"ELEMENT_SET_NO":999,"REV_AT_EPOCH":19548,"BSTAR":0.00046586,"MEAN_MOTION_DOT":2.02e-6,"MEAN_MOTION_DDOT":0},{"OBJECT_NAME":"ONEWEB-0371","OBJECT_ID":"2021-090U","EPOCH":"2025-09-29T18:13:12.459072","MEAN_MOTION":13.19726182,"ECCENTRICITY":0.0001866,"INCLINATION":87.9281,"RA_OF_ASC_NODE":356.7629,"ARG_OF_PERICENTER":105.458,"MEAN_ANOMALY":254.6759,"EPHEMERIS_TYPE":0,"CLASSIFICATION_TYPE":"U","NORAD_CAT_ID":49297,"ELEMENT_SET_NO":999,"REV_AT_EPOCH":19210,"BSTAR":-0.00013854,"MEAN_MOTION_DOT":-4.3e-7,"MEAN_MOTION_DDOT":0},{"OBJECT_NAME":"ONEWEB-0372","OBJECT_ID":"2021-090V","EPOCH":"2025-09-29T15:12:34.576128","MEAN_MOTION":13.20773363,"ECCENTRICITY":0.0001753,"INCLINATION":87.9243,"RA_OF_ASC_NODE":326.4002,"ARG_OF_PERICENTER":97.1229,"MEAN_ANOMALY":263.0104,"EPHEMERIS_TYPE":0,"CLASSIFICATION_TYPE":"U","NORAD_CAT_ID":49298,"ELEMENT_SET_NO":999,"REV_AT_EPOCH":19544,"BSTAR":0.00016767,"MEAN_MOTION_DOT":8.1e-7,"MEAN_MOTION_DDOT":0},{"OBJECT_NAME":"ONEWEB-0373","OBJECT_ID":"2021-090W","EPOCH":"2025-09-29T14:02:19.419072","MEAN_MOTION":13.20772405,"ECCENTRICITY":0.0001935,"INCLINATION":87.9243,"RA_OF_ASC_NODE":326.4234,"ARG_OF_PERICENTER":93.2649,"MEAN_ANOMALY":266.8706,"EPHEMERIS_TYPE":0,"CLASSIFICATION_TYPE":"U","NORAD_CAT_ID":49299,"ELEMENT_SET_NO":999,"REV_AT_EPOCH":19662,"BSTAR":8.8198e-5,"MEAN_MOTION_DOT":4.9e-7,"MEAN_MOTION_DDOT":0},{"OBJECT_NAME":"ONEWEB-0374","OBJECT_ID":"2021-090X","EPOCH":"2025-09-29T17:16:30.760608","MEAN_MOTION":13.14503121,"ECCENTRICITY":0.0001693,"INCLINATION":87.9064,"RA_OF_ASC_NODE":341.5707,"ARG_OF_PERICENTER":77.5385,"MEAN_ANOMALY":282.5934,"EPHEMERIS_TYPE":0,"CLASSIFICATION_TYPE":"U","NORAD_CAT_ID":49300,"ELEMENT_SET_NO":999,"REV_AT_EPOCH":19334,"BSTAR":0.00085791,"MEAN_MOTION_DOT":3.31e-6,"MEAN_MOTION_DDOT":0}]
